<?xml version="1.0" encoding="UTF-8"?>
<ndm xmlns:xsi="http://www.w3.org/2001/XMLSchema-instance" xsi:noNamespaceSchemaLocation="https://sanaregistry.org/r/ndmxml_unqualified/ndmxml-2.0.0-master-2.0.xsd">
<omm id="CCSDS_OMM_VERS" version="2.0">
<header><CREATION_DATE/><ORIGINATOR/></header><body><segment><metadata><OBJECT_NAME>KUIPER-00095</OBJECT_NAME><OBJECT_ID>2025-171C</OBJECT_ID><CENTER_NAME>EARTH</CENTER_NAME><REF_FRAME>TEME</REF_FRAME><TIME_SYSTEM>UTC</TIME_SYSTEM><MEAN_ELEMENT_THEORY>SGP4</MEAN_ELEMENT_THEORY></metadata><data><meanElements><EPOCH>2025-10-02T09:19:32.397024</EPOCH><MEAN_MOTION>15.36590965</MEAN_MOTION><ECCENTRICITY>.0003915</ECCENTRICITY><INCLINATION>51.8754</INCLINATION><RA_OF_ASC_NODE>154.5607</RA_OF_ASC_NODE><ARG_OF_PERICENTER>349.0131</ARG_OF_PERICENTER><MEAN_ANOMALY>11.0770</MEAN_ANOMALY></meanElements><tleParameters><EPHEMERIS_TYPE>0</EPHEMERIS_TYPE><CLASSIFICATION_TYPE>U</CLASSIFICATION_TYPE><NORAD_CAT_ID>65134</NORAD_CAT_ID><ELEMENT_SET_NO>999</ELEMENT_SET_NO><REV_AT_EPOCH>922</REV_AT_EPOCH><BSTAR>.27942E-2</BSTAR><MEAN_MOTION_DOT>.102374E-2</MEAN_MOTION_DOT><MEAN_MOTION_DDOT>0</MEAN_MOTION_DDOT></tleParameters></data></segment></body></omm>
<omm id="CCSDS_OMM_VERS" version="2.0">
<header><CREATION_DATE/><ORIGINATOR/></header><body><segment><metadata><OBJECT_NAME>KUIPER-00096</OBJECT_NAME><OBJECT_ID>2025-171D</OBJECT_ID><CENTER_NAME>EARTH</CENTER_NAME><REF_FRAME>TEME</REF_FRAME><TIME_SYSTEM>UTC</TIME_SYSTEM><MEAN_ELEMENT_THEORY>SGP4</MEAN_ELEMENT_THEORY></metadata><data><meanElements><EPOCH>2025-10-02T09:05:25.106784</EPOCH><MEAN_MOTION>15.37102259</MEAN_MOTION><ECCENTRICITY>.0003796</ECCENTRICITY><INCLINATION>51.8752</INCLINATION><RA_OF_ASC_NODE>154.4959</RA_OF_ASC_NODE><ARG_OF_PERICENTER>319.2101</ARG_OF_PERICENTER><MEAN_ANOMALY>40.8601</MEAN_ANOMALY></meanElements><tleParameters><EPHEMERIS_TYPE>0</EPHEMERIS_TYPE><CLASSIFICATION_TYPE>U</CLASSIFICATION_TYPE><NORAD_CAT_ID>65135</NORAD_CAT_ID><ELEMENT_SET_NO>999</ELEMENT_SET_NO><REV_AT_EPOCH>922</REV_AT_EPOCH><BSTAR>.18197E-2</BSTAR><MEAN_MOTION_DOT>.67331E-3</MEAN_MOTION_DOT><MEAN_MOTION_DDOT>0</MEAN_MOTION_DDOT></tleParameters></data></segment></body></omm>
<omm id="CCSDS_OMM_VERS" version="2.0">
<header><CREATION_DATE/><ORIGINATOR/></header><body><segment><metadata><OBJECT_NAME>KUIPER-00097</OBJECT_NAME><OBJECT_ID>2025-171E</OBJECT_ID><CENTER_NAME>EARTH</CENTER_NAME><REF_FRAME>TEME</REF_FRAME><TIME_SYSTEM>UTC</TIME_SYSTEM><MEAN_ELEMENT_THEORY>SGP4</MEAN_ELEMENT_THEORY></metadata><data><meanElements><EPOCH>2025-10-02T09:20:59.661024</EPOCH><MEAN_MOTION>15.36768565</MEAN_MOTION><ECCENTRICITY>.0004084</ECCENTRICITY><INCLINATION>51.8751</INCLINATION><RA_OF_ASC_NODE>154.5677</RA_OF_ASC_NODE><ARG_OF_PERICENTER>329.1795</ARG_OF_PERICENTER><MEAN_ANOMALY>30.8952</MEAN_ANOMALY></meanElements><tleParameters><EPHEMERIS_TYPE>0</EPHEMERIS_TYPE><CLASSIFICATION_TYPE>U</CLASSIFICATION_TYPE><NORAD_CAT_ID>65136</NORAD_CAT_ID><ELEMENT_SET_NO>999</ELEMENT_SET_NO><REV_AT_EPOCH>921</REV_AT_EPOCH><BSTAR>.17877E-2</BSTAR><MEAN_MOTION_DOT>.65413E-3</MEAN_MOTION_DOT><MEAN_MOTION_DDOT>0</MEAN_MOTION_DDOT></tleParameters></data></segment></body></omm>
<omm id="CCSDS_OMM_VERS" version="2.0">
<header><CREATION_DATE/><ORIGINATOR/></header><body><segment><metadata><OBJECT_NAME>KUIPER-00098</OBJECT_NAME><OBJECT_ID>2025-171F</OBJECT_ID><CENTER_NAME>EARTH</CENTER_NAME><REF_FRAME>TEME</REF_FRAME><TIME_SYSTEM>UTC</TIME_SYSTEM><MEAN_ELEMENT_THEORY>SGP4</MEAN_ELEMENT_THEORY></metadata><data><meanElements><EPOCH>2025-10-02T08:50:59.306208</EPOCH><MEAN_MOTION>15.37186402</MEAN_MOTION><ECCENTRICITY>.0005484</ECCENTRICITY><INCLINATION>51.8741</INCLINATION><RA_OF_ASC_NODE>154.4377</RA_OF_ASC_NODE><ARG_OF_PERICENTER>296.9296</ARG_OF_PERICENTER><MEAN_ANOMALY>63.1130</MEAN_ANOMALY></meanElements><tleParameters><EPHEMERIS_TYPE>0</EPHEMERIS_TYPE><CLASSIFICATION_TYPE>U</CLASSIFICATION_TYPE><NORAD_CAT_ID>65137</NORAD_CAT_ID><ELEMENT_SET_NO>999</ELEMENT_SET_NO><REV_AT_EPOCH>856</REV_AT_EPOCH><BSTAR>.3613E-2</BSTAR><MEAN_MOTION_DOT>.135687E-2</MEAN_MOTION_DOT><MEAN_MOTION_DDOT>0</MEAN_MOTION_DDOT></tleParameters></data></segment></body></omm>
<omm id="CCSDS_OMM_VERS" version="2.0">
<header><CREATION_DATE/><ORIGINATOR/></header><body><segment><metadata><OBJECT_NAME>KUIPER-00099</OBJECT_NAME><OBJECT_ID>2025-171G</OBJECT_ID><CENTER_NAME>EARTH</CENTER_NAME><REF_FRAME>TEME</REF_FRAME><TIME_SYSTEM>UTC</TIME_SYSTEM><MEAN_ELEMENT_THEORY>SGP4</MEAN_ELEMENT_THEORY></metadata><data><meanElements><EPOCH>2025-10-02T01:06:31.053600</EPOCH><MEAN_MOTION>15.37264513</MEAN_MOTION><ECCENTRICITY>.00046548</ECCENTRICITY><INCLINATION>51.8755</INCLINATION><RA_OF_ASC_NODE>156.0275</RA_OF_ASC_NODE><ARG_OF_PERICENTER>308.2869</ARG_OF_PERICENTER><MEAN_ANOMALY>51.7699</MEAN_ANOMALY></meanElements><tleParameters><EPHEMERIS_TYPE>0</EPHEMERIS_TYPE><CLASSIFICATION_TYPE>U</CLASSIFICATION_TYPE><NORAD_CAT_ID>65138</NORAD_CAT_ID><ELEMENT_SET_NO>999</ELEMENT_SET_NO><REV_AT_EPOCH>916</REV_AT_EPOCH><BSTAR>.14300184E-2</BSTAR><MEAN_MOTION_DOT>.53013E-3</MEAN_MOTION_DOT><MEAN_MOTION_DDOT>0</MEAN_MOTION_DDOT></tleParameters></data></segment></body></omm>
<omm id="CCSDS_OMM_VERS" version="2.0">
<header><CREATION_DATE/><ORIGINATOR/></header><body><segment><metadata><OBJECT_NAME>KUIPER-00100</OBJECT_NAME><OBJECT_ID>2025-171H</OBJECT_ID><CENTER_NAME>EARTH</CENTER_NAME><REF_FRAME>TEME</REF_FRAME><TIME_SYSTEM>UTC</TIME_SYSTEM><MEAN_ELEMENT_THEORY>SGP4</MEAN_ELEMENT_THEORY></metadata><data><meanElements><EPOCH>2025-10-02T09:04:56.555904</EPOCH><MEAN_MOTION>15.37061679</MEAN_MOTION><ECCENTRICITY>.0004343</ECCENTRICITY><INCLINATION>51.8754</INCLINATION><RA_OF_ASC_NODE>154.4941</RA_OF_ASC_NODE><ARG_OF_PERICENTER>320.5799</ARG_OF_PERICENTER><MEAN_ANOMALY>39.4871</MEAN_ANOMALY></meanElements><tleParameters><EPHEMERIS_TYPE>0</EPHEMERIS_TYPE><CLASSIFICATION_TYPE>U</CLASSIFICATION_TYPE><NORAD_CAT_ID>65139</NORAD_CAT_ID><ELEMENT_SET_NO>999</ELEMENT_SET_NO><REV_AT_EPOCH>921</REV_AT_EPOCH><BSTAR>.18945E-2</BSTAR><MEAN_MOTION_DOT>.70055E-3</MEAN_MOTION_DOT><MEAN_MOTION_DDOT>0</MEAN_MOTION_DDOT></tleParameters></data></segment></body></omm>
<omm id="CCSDS_OMM_VERS" version="2.0">
<header><CREATION_DATE/><ORIGINATOR/></header><body><segment><metadata><OBJECT_NAME>KUIPER-00102</OBJECT_NAME><OBJECT_ID>2025-171J</OBJECT_ID><CENTER_NAME>EARTH</CENTER_NAME><REF_FRAME>TEME</REF_FRAME><TIME_SYSTEM>UTC</TIME_SYSTEM><MEAN_ELEMENT_THEORY>SGP4</MEAN_ELEMENT_THEORY></metadata><data><meanElements><EPOCH>2025-10-02T09:20:53.135232</EPOCH><MEAN_MOTION>15.36681934</MEAN_MOTION><ECCENTRICITY>.0003864</ECCENTRICITY><INCLINATION>51.8751</INCLINATION><RA_OF_ASC_NODE>154.5637</RA_OF_ASC_NODE><ARG_OF_PERICENTER>335.5415</ARG_OF_PERICENTER><MEAN_ANOMALY>24.5388</MEAN_ANOMALY></meanElements><tleParameters><EPHEMERIS_TYPE>0</EPHEMERIS_TYPE><CLASSIFICATION_TYPE>U</CLASSIFICATION_TYPE><NORAD_CAT_ID>65140</NORAD_CAT_ID><ELEMENT_SET_NO>999</ELEMENT_SET_NO><REV_AT_EPOCH>921</REV_AT_EPOCH><BSTAR>.21689E-2</BSTAR><MEAN_MOTION_DOT>.79367E-3</MEAN_MOTION_DOT><MEAN_MOTION_DDOT>0</MEAN_MOTION_DDOT></tleParameters></data></segment></body></omm>
<omm id="CCSDS_OMM_VERS" version="2.0">
<header><CREATION_DATE/><ORIGINATOR/></header><body><segment><metadata><OBJECT_NAME>KUIPER-00103</OBJECT_NAME><OBJECT_ID>2025-171K</OBJECT_ID><CENTER_NAME>EARTH</CENTER_NAME><REF_FRAME>TEME</REF_FRAME><TIME_SYSTEM>UTC</TIME_SYSTEM><MEAN_ELEMENT_THEORY>SGP4</MEAN_ELEMENT_THEORY></metadata><data><meanElements><EPOCH>2025-10-02T16:00:01.998720</EPOCH><MEAN_MOTION>15.20372179</MEAN_MOTION><ECCENTRICITY>.0004813</ECCENTRICITY><INCLINATION>51.8857</INCLINATION><RA_OF_ASC_NODE>154.0809</RA_OF_ASC_NODE><ARG_OF_PERICENTER>317.8958</ARG_OF_PERICENTER><MEAN_ANOMALY>85.2708</MEAN_ANOMALY></meanElements><tleParameters><EPHEMERIS_TYPE>0</EPHEMERIS_TYPE><CLASSIFICATION_TYPE>U</CLASSIFICATION_TYPE><NORAD_CAT_ID>65141</NORAD_CAT_ID><ELEMENT_SET_NO>999</ELEMENT_SET_NO><REV_AT_EPOCH>449</REV_AT_EPOCH><BSTAR>-.34507E-1</BSTAR><MEAN_MOTION_DOT>-.710983E-2</MEAN_MOTION_DOT><MEAN_MOTION_DDOT>0</MEAN_MOTION_DDOT></tleParameters></data></segment></body></omm>

</ndm>
