KUIPER-00095            
1 65134U 25171C   25275.38856941  .00102374  00000+0  27942-2 0  9992
2 65134  51.8754 154.5607 0003915 349.0131  11.0770 15.36590965  9226
KUIPER-00096            
1 65135U 25171D   25275.37876281  .00067331  00000+0  18197-2 0  9996
2 65135  51.8752 154.4959 0003796 319.2101  40.8601 15.37102259  9226
KUIPER-00097            
1 65136U 25171E   25275.38957941  .00065413  00000+0  17877-2 0  9994
2 65136  51.8751 154.5677 0004084 329.1795  30.8952 15.36768565  9218
KUIPER-00098            
1 65137U 25171F   25275.36874197  .00135687  00000+0  36130-2 0  9998
2 65137  51.8741 154.4377 0005484 296.9296  63.1130 15.37186402  8565
KUIPER-00099            
1 65138U 25171G   25275.04619275  .00053013  00000+0  14300-2 0  9995
2 65138  51.8755 156.0275 0004654 308.2869  51.7699 15.37264513  9167
KUIPER-00100            
1 65139U 25171H   25275.37843236  .00070055  00000+0  18945-2 0  9992
2 65139  51.8754 154.4941 0004343 320.5799  39.4871 15.37061679  9212
KUIPER-00102            
1 65140U 25171J   25275.38950388  .00079367  00000+0  21689-2 0  9996
2 65140  51.8751 154.5637 0003864 335.5415  24.5388 15.36681934  9211
KUIPER-00103            
1 65141U 25171K   25275.66668980 -.00710983  00000+0 -34507-1 0  9992
2 65141  51.8857 154.0809 0004813 317.8958  85.2708 15.20372179  4491
